start=new Date('2021-11-04T00:00:00.000Z').valueOf();
sats=[{"REF_FRAME":"TEME","MEAN_MOTION_DOT":"0.00000159","REV_AT_EPOCH":"9055","ELEMENT_SET_NO":"999","EPOCH":"2021-11-03T19:16:21.541440","OBJECT_TYPE":"PAYLOAD","SEMIMAJOR_AXIS":"6925.375","INCLINATION":"53.0538","MEAN_MOTION_DDOT":"0.0000000000000","PERIAPSIS":"546.270","MEAN_ANOMALY":"275.9871","LAUNCH_DATE":"2020-03-18","ECCENTRICITY":"0.00014000","RA_OF_ASC_NODE":"90.4340","APOAPSIS":"548.209","TLE_LINE1":"1 45377U 20019T   21307.80302710  .00000159  00000-0  29561-4 0  9994","PERIOD":"95.593","EPHEMERIS_TYPE":"0","GP_ID":"188856402","SITE":"AFETR","TLE_LINE2":"2 45377  53.0538  90.4340 0001400  84.1277 275.9871 15.06391433 90559","RCS_SIZE":"LARGE","TIME_SYSTEM":"UTC","NORAD_CAT_ID":"45377","ARG_OF_PERICENTER":"84.1277","BSTAR":"0.00002956100000","MEAN_ELEMENT_THEORY":"SGP4","COUNTRY_CODE":"US","CENTER_NAME":"EARTH","FILE":"3200165","MEAN_MOTION":"15.06391433","CLASSIFICATION_TYPE":"U","OBJECT_ID":"2020-019T","DECAY_DATE":null,"OBJECT_NAME":"STARLINK-1305"},{"REV_AT_EPOCH":"9053","REF_FRAME":"TEME","MEAN_MOTION_DOT":"0.00000792","INCLINATION":"53.0549","OBJECT_TYPE":"PAYLOAD","SEMIMAJOR_AXIS":"6925.355","EPOCH":"2021-11-03T15:49:21.644256","ELEMENT_SET_NO":"999","PERIAPSIS":"546.005","MEAN_MOTION_DDOT":"0.0000000000000","ECCENTRICITY":"0.00017550","LAUNCH_DATE":"2020-03-18","MEAN_ANOMALY":"268.4896","TLE_LINE2":"2 45378  53.0549  91.0824 0001755  91.6294 268.4896 15.06397807 90534","RCS_SIZE":"LARGE","GP_ID":"188857654","SITE":"AFETR","PERIOD":"95.592","EPHEMERIS_TYPE":"0","TLE_LINE1":"1 45378U 20019U   21307.65927829  .00000792  00000-0  72063-4 0  9990","APOAPSIS":"548.436","RA_OF_ASC_NODE":"91.0824","TIME_SYSTEM":"UTC","CENTER_NAME":"EARTH","COUNTRY_CODE":"US","MEAN_ELEMENT_THEORY":"SGP4","ARG_OF_PERICENTER":"91.6294","BSTAR":"0.00007206300000","NORAD_CAT_ID":"45378","DECAY_DATE":null,"OBJECT_NAME":"STARLINK-1310","OBJECT_ID":"2020-019U","CLASSIFICATION_TYPE":"U","FILE":"3200165","MEAN_MOTION":"15.06397807"},{"NORAD_CAT_ID":"45379","BSTAR":"0.00022342000000","ARG_OF_PERICENTER":"83.9446","COUNTRY_CODE":"US","MEAN_ELEMENT_THEORY":"SGP4","CENTER_NAME":"EARTH","MEAN_MOTION":"15.06412460","FILE":"3200165","CLASSIFICATION_TYPE":"U","OBJECT_ID":"2020-019V","OBJECT_NAME":"STARLINK-1319","DECAY_DATE":null,"RA_OF_ASC_NODE":"91.0657","APOAPSIS":"548.360","TLE_LINE1":"1 45379U 20019V   21307.66296099  .00003049  00000-0  22342-3 0  9992","PERIOD":"95.591","EPHEMERIS_TYPE":"0","GP_ID":"188857905","SITE":"AFETR","RCS_SIZE":"LARGE","TLE_LINE2":"2 45379  53.0538  91.0657 0001711  83.9446 276.1738 15.06412460 90536","TIME_SYSTEM":"UTC","MEAN_MOTION_DDOT":"0.0000000000000","PERIAPSIS":"545.990","MEAN_ANOMALY":"276.1738","LAUNCH_DATE":"2020-03-18","ECCENTRICITY":"0.00017110","MEAN_MOTION_DOT":"0.00003049","REF_FRAME":"TEME","REV_AT_EPOCH":"9053","ELEMENT_SET_NO":"999","EPOCH":"2021-11-03T15:54:39.829536","OBJECT_TYPE":"PAYLOAD","SEMIMAJOR_AXIS":"6925.310","INCLINATION":"53.0538"},{"CLASSIFICATION_TYPE":"U","OBJECT_ID":"2020-019W","DECAY_DATE":null,"OBJECT_NAME":"STARLINK-1207","MEAN_MOTION":"15.06394291","FILE":"3200165","COUNTRY_CODE":"US","MEAN_ELEMENT_THEORY":"SGP4","CENTER_NAME":"EARTH","BSTAR":"-0.00001248700000","ARG_OF_PERICENTER":"80.3295","NORAD_CAT_ID":"45380","TIME_SYSTEM":"UTC","EPHEMERIS_TYPE":"0","PERIOD":"95.593","RCS_SIZE":"LARGE","TLE_LINE2":"2 45380  53.0563  70.7799 0001368  80.3295 279.7849 15.06394291 90812","GP_ID":"188856653","SITE":"AFETR","RA_OF_ASC_NODE":"70.7799","TLE_LINE1":"1 45380U 20019W   21307.72747174 -.00000467  00000-0 -12487-4 0  9999","APOAPSIS":"548.178","ECCENTRICITY":"0.00013680","MEAN_ANOMALY":"279.7849","LAUNCH_DATE":"2020-03-18","MEAN_MOTION_DDOT":"0.0000000000000","PERIAPSIS":"546.284","INCLINATION":"53.0563","SEMIMAJOR_AXIS":"6925.366","OBJECT_TYPE":"PAYLOAD","ELEMENT_SET_NO":"999","EPOCH":"2021-11-03T17:27:33.558336","REV_AT_EPOCH":"9081","REF_FRAME":"TEME","MEAN_MOTION_DOT":"-0.00000467"},{"COUNTRY_CODE":"US","MEAN_ELEMENT_THEORY":"SGP4","CENTER_NAME":"EARTH","BSTAR":"-0.00001033500000","ARG_OF_PERICENTER":"61.9109","NORAD_CAT_ID":"45381","DECAY_DATE":null,"OBJECT_NAME":"STARLINK-1258","OBJECT_ID":"2020-019X","CLASSIFICATION_TYPE":"U","MEAN_MOTION":"15.06406879","FILE":"3200165","TLE_LINE2":"2 45381  53.0539  70.4239 0001037  61.9109 298.1984 15.06406879 90826","RCS_SIZE":"LARGE","GP_ID":"188856903","SITE":"AFETR","EPHEMERIS_TYPE":"0","PERIOD":"95.592","TLE_LINE1":"1 45381U 20019X   21307.80485975 -.00000435  00000-0 -10335-4 0  9992","APOAPSIS":"547.911","RA_OF_ASC_NODE":"70.4239","TIME_SYSTEM":"UTC","PERIAPSIS":"546.474","MEAN_MOTION_DDOT":"0.0000000000000","ECCENTRICITY":"0.00010370","LAUNCH_DATE":"2020-03-18","MEAN_ANOMALY":"298.1984","REV_AT_EPOCH":"9082","REF_FRAME":"TEME","MEAN_MOTION_DOT":"-0.00000435","INCLINATION":"53.0539","OBJECT_TYPE":"PAYLOAD","SEMIMAJOR_AXIS":"6925.327","EPOCH":"2021-11-03T19:18:59.882400","ELEMENT_SET_NO":"999"},{"MEAN_MOTION_DDOT":"0.0000000000000","PERIAPSIS":"546.198","MEAN_ANOMALY":"297.9105","LAUNCH_DATE":"2020-03-18","ECCENTRICITY":"0.00014150","REF_FRAME":"TEME","MEAN_MOTION_DOT":"0.00008019","REV_AT_EPOCH":"9065","ELEMENT_SET_NO":"999","EPOCH":"2021-11-03T20:22:41.943648","SEMIMAJOR_AXIS":"6925.313","OBJECT_TYPE":"PAYLOAD","INCLINATION":"53.0545","NORAD_CAT_ID":"45382","ARG_OF_PERICENTER":"62.2028","BSTAR":"0.00055646000000","CENTER_NAME":"EARTH","COUNTRY_CODE":"US","MEAN_ELEMENT_THEORY":"SGP4","FILE":"3200165","MEAN_MOTION":"15.06411723","OBJECT_ID":"2020-019Y","CLASSIFICATION_TYPE":"U","DECAY_DATE":null,"OBJECT_NAME":"STARLINK-1264","RA_OF_ASC_NODE":"70.2317","APOAPSIS":"548.158","TLE_LINE1":"1 45382U 20019Y   21307.84909657  .00008019  00000-0  55646-3 0  9992","PERIOD":"95.591","EPHEMERIS_TYPE":"0","GP_ID":"188857154","SITE":"AFETR","TLE_LINE2":"2 45382  53.0545  70.2317 0001415  62.2028 297.9105 15.06411723 90650","RCS_SIZE":"LARGE","TIME_SYSTEM":"UTC"},{"ARG_OF_PERICENTER":"86.3459","BSTAR":"0.00010720000000","NORAD_CAT_ID":"45383","COUNTRY_CODE":"US","CENTER_NAME":"EARTH","MEAN_ELEMENT_THEORY":"SGP4","MEAN_MOTION":"15.06393558","FILE":"3200165","DECAY_DATE":null,"OBJECT_NAME":"STARLINK-1266","CLASSIFICATION_TYPE":"U","OBJECT_ID":"2020-019Z","TLE_LINE1":"1 45383U 20019Z   21307.73116065  .00001315  00000-0  10720-3 0  9990","APOAPSIS":"548.145","RA_OF_ASC_NODE":"70.7528","TLE_LINE2":"2 45383  53.0536  70.7528 0001316  86.3459 273.7680 15.06393558 90818","RCS_SIZE":"LARGE","GP_ID":"188857405","SITE":"AFETR","EPHEMERIS_TYPE":"0","PERIOD":"95.593","TIME_SYSTEM":"UTC","PERIAPSIS":"546.322","MEAN_MOTION_DDOT":"0.0000000000000","LAUNCH_DATE":"2020-03-18","MEAN_ANOMALY":"273.7680","ECCENTRICITY":"0.00013160","REF_FRAME":"TEME","MEAN_MOTION_DOT":"0.00001315","REV_AT_EPOCH":"9081","EPOCH":"2021-11-03T17:32:52.280160","ELEMENT_SET_NO":"999","INCLINATION":"53.0536","SEMIMAJOR_AXIS":"6925.368","OBJECT_TYPE":"PAYLOAD"},{"PERIAPSIS":"546.246","MEAN_MOTION_DDOT":"0.0000000000000","LAUNCH_DATE":"2020-03-18","MEAN_ANOMALY":"268.0423","ECCENTRICITY":"0.00013750","MEAN_MOTION_DOT":"0.00001062","REF_FRAME":"TEME","REV_AT_EPOCH":"9081","EPOCH":"2021-11-03T17:16:55.426944","ELEMENT_SET_NO":"999","INCLINATION":"53.0563","OBJECT_TYPE":"PAYLOAD","SEMIMAJOR_AXIS":"6925.334","ARG_OF_PERICENTER":"92.0724","BSTAR":"0.00009013800000","NORAD_CAT_ID":"45384","MEAN_ELEMENT_THEORY":"SGP4","COUNTRY_CODE":"US","CENTER_NAME":"EARTH","FILE":"3200165","MEAN_MOTION":"15.06404859","DECAY_DATE":null,"OBJECT_NAME":"STARLINK-1267","CLASSIFICATION_TYPE":"U","OBJECT_ID":"2020-019AA","TLE_LINE1":"1 45384U 20019AA  21307.72008596  .00001062  00000-0  90138-4 0  9990","APOAPSIS":"548.151","RA_OF_ASC_NODE":"70.7917","TLE_LINE2":"2 45384  53.0563  70.7917 0001375  92.0724 268.0423 15.06404859 90814","RCS_SIZE":"LARGE","GP_ID":"188856153","SITE":"AFETR","PERIOD":"95.592","EPHEMERIS_TYPE":"0","TIME_SYSTEM":"UTC"},{"TIME_SYSTEM":"UTC","TLE_LINE2":"2 45386  53.0552  72.2829 0001212  83.0246 277.0881 15.06399466 90761","RCS_SIZE":"LARGE","SITE":"AFETR","GP_ID":"188826651","EPHEMERIS_TYPE":"0","PERIOD":"95.592","TLE_LINE1":"1 45386U 20019AC  21307.39204979  .00002659  00000-0  19735-3 0  9994","APOAPSIS":"548.055","RA_OF_ASC_NODE":"72.2829","DECAY_DATE":null,"OBJECT_NAME":"STARLINK-1272","CLASSIFICATION_TYPE":"U","OBJECT_ID":"2020-019AC","MEAN_MOTION":"15.06399466","FILE":"3199758","CENTER_NAME":"EARTH","COUNTRY_CODE":"US","MEAN_ELEMENT_THEORY":"SGP4","BSTAR":"0.00019735000000","ARG_OF_PERICENTER":"83.0246","NORAD_CAT_ID":"45386","INCLINATION":"53.0552","OBJECT_TYPE":"PAYLOAD","SEMIMAJOR_AXIS":"6925.350","EPOCH":"2021-11-03T09:24:33.101856","ELEMENT_SET_NO":"999","REV_AT_EPOCH":"9076","REF_FRAME":"TEME","MEAN_MOTION_DOT":"0.00002659","ECCENTRICITY":"0.00012120","LAUNCH_DATE":"2020-03-18","MEAN_ANOMALY":"277.0881","PERIAPSIS":"546.376","MEAN_MOTION_DDOT":"0.0000000000000"},{"ECCENTRICITY":"0.00013290","MEAN_ANOMALY":"276.8818","LAUNCH_DATE":"2020-03-18","MEAN_MOTION_DDOT":"0.0000000000000","PERIAPSIS":"546.290","INCLINATION":"53.0546","OBJECT_TYPE":"PAYLOAD","SEMIMAJOR_AXIS":"6925.345","ELEMENT_SET_NO":"999","EPOCH":"2021-11-03T14:43:00.441120","REV_AT_EPOCH":"9079","MEAN_MOTION_DOT":"-0.00001697","REF_FRAME":"TEME","OBJECT_ID":"2020-019AD","CLASSIFICATION_TYPE":"U","OBJECT_NAME":"STARLINK-1274","DECAY_DATE":null,"FILE":"3200165","MEAN_MOTION":"15.06401036","COUNTRY_CODE":"US","MEAN_ELEMENT_THEORY":"SGP4","CENTER_NAME":"EARTH","BSTAR":"-0.00009508300000","ARG_OF_PERICENTER":"83.2322","NORAD_CAT_ID":"45387","TIME_SYSTEM":"UTC","EPHEMERIS_TYPE":"0","PERIOD":"95.592","RCS_SIZE":"LARGE","TLE_LINE2":"2 45387  53.0546  71.2882 0001329  83.2322 276.8818 15.06401036 90796","GP_ID":"188857655","SITE":"AFETR","RA_OF_ASC_NODE":"71.2882","APOAPSIS":"548.131","TLE_LINE1":"1 45387U 20019AD  21307.61319955 -.00001697  00000-0 -95083-4 0  9995"}];
